IRIDIUM 150             
1 43257U 18030J   25046.51272552 -.00000099  00000+0 -42594-4 0  9996
2 43257  86.4002 133.9438 0002201  92.3127 267.8321 14.34216892360405
IRIDIUM 161             
1 43478U 18047C   25046.60517145  .00000775  00000+0  22440-3 0  9995
2 43478  86.4475 291.8019 0002115  87.1614 272.9829 14.43278059354956
IRIDIUM 152             
1 43479U 18047D   25046.60595218  .00000048  00000+0  10182-4 0  9997
2 43479  86.3948 291.6613 0002058  87.7236 272.4195 14.34217612352745
IRIDIUM 147             
1 43480U 18047E   25046.75182993  .00000318  00000+0  10651-3 0  9997
2 43480  86.3950 291.5967 0001787  85.3972 274.7428 14.34218958352760
IRIDIUM 110             
1 43481U 18047F   25046.75817417  .00000514  00000+0  17636-3 0  9992
2 43481  86.3951 291.6735 0001931  98.4354 261.7061 14.34217598352753
IRIDIUM 162             
1 43482U 18047G   25046.59892052  .00000668  00000+0  19255-3 0  9992
2 43482  86.4473 291.7015 0002151  92.5090 267.6357 14.43279900354944
IRIDIUM 160             
1 43569U 18061A   25046.84354666 -.00000068  00000+0 -31299-4 0  9995
2 43569  86.3922 259.9868 0001798  93.1801 266.9601 14.34216751343669
